AEROCUBE 7B             
1 43042U 17071F   18360.92136245  .00002313  00000-0  66866-4 0  9994
2 43042  51.6372 181.7445 0004321 239.1906 120.8653 15.40049563 59296
AEROCUBE 7C             
1 43043U 17071G   18360.98628293  .00002305  00000-0  66681-4 0  9996
2 43043  51.6375 181.4379 0004396 241.3216 118.7327 15.40046449 59276
CHEFSAT                 
1 43044U 17071H   18360.89908673  .00004659  00000-0  11770-3 0  9992
2 43044  51.6378 179.4189 0004323 238.0011 122.0555 15.41804269 59298
ASGARDIA 1              
1 43049U 17071N   18360.88696670  .00001625  00000-0  49742-4 0  9998
2 43049  51.6378 181.5397 0001817 258.1255 101.9526 15.40165834 59264
ISARA                   
1 43050U 17071P   18360.86601412  .00003088  00000-0  82200-4 0  9999
2 43050  51.6375 179.9262 0001691 248.1081 111.9725 15.41436824 59275
FAUNA                   
1 43052U 17071R   18360.91956622  .00002252  00000-0  64702-4 0  9992
2 43052  51.6379 181.0217 0001730 252.1116 107.9680 15.40367223 59262
CORVUS BC3              
1 43118U 18004H   18360.92108187  .00000581  00000-0  28081-4 0  9991
2 43118  97.5104  63.6605 0011716 135.0299 225.1888 15.22559741 53032
MICROMAS-2A             
1 43131U 18004W   18360.92027035  .00001380  00000-0  60854-4 0  9990
2 43131  97.5119  64.0102 0010755 137.3284 222.8789 15.23476946 53053
CICERO 7                
1 43143U 18004AJ  18360.76900765  .00001080  00000-0  47917-4 0  9997
2 43143  97.5112  64.0455 0008622 144.5650 215.6161 15.23736349 53046
GOMX4-B                 
1 43196U 18015E   18360.82219950  .00000318  00000-0  16104-4 0  9990
2 43196  97.3688 126.1240 0018130 195.6304 164.4373 15.23766828 49866
GOMX4-A                 
1 43197U 18015F   18361.15796211  .00000323  00000-0  16283-4 0  9992
2 43197  97.3705 126.4627 0018778 194.2642 248.4844 15.23860045 49926
1KUNS-PF                
1 43466U 98067NP  18360.82072060  .00012362  00000-0  15449-3 0  9996
2 43466  51.6388 132.8619 0000732 152.3341 207.7692 15.60256899 35728
UBAKUSAT                
1 43467U 98067NQ  18360.83505798  .00008924  00000-0  11908-3 0  9992
2 43467  51.6382 133.7059 0002898 130.6710 229.4535 15.58928684 35727
BATSU-CS1 (IRAZU)       
1 43468U 98067NR  18360.81762382  .00015317  00000-0  18267-3 0  9994
2 43468  51.6385 132.0897 0000574 160.2810 199.8206 15.61271791135722
CUBERRT                 
1 43546U 98067NU  18360.87585415  .00004848  00000-0  68417-4 0  9997
2 43546  51.6382 135.4689 0005892 196.1739 163.9066 15.58626966 25838
TEMPEST-D               
1 43547U 98067NV  18360.84949865  .00013429  00000-0  19512-3 0  9994
2 43547  51.6384 136.7888 0005932 187.9999 172.0899 15.56107866 25495
RAINCUBE                
1 43548U 98067NW  18360.98901861  .00008988  00000-0  12680-3 0  9997
2 43548  51.6387 135.4727 0005870 200.7936 159.2818 15.57403268 25970
HALOSAT                 
1 43549U 98067NX  18360.86086100  .00008003  00000-0  11366-3 0  9993
2 43549  51.6389 136.1186 0005779 202.4171 157.6569 15.57402120 25519
ENDUROSAT ONE           
1 43551U 98067NZ  18360.81168343  .00010780  00000-0  14666-3 0  9992
2 43551  51.6386 135.7873 0006227 210.2238 149.8396 15.58138261 25926
EQUISAT                 
1 43552U 98067PA  18360.83173356  .00009150  00000-0  12755-3 0  9991
2 43552  51.6388 135.9235 0006479 209.6235 150.4391 15.57701344 25886
AEROCUBE 12A            
1 43556U 18046C   18360.86022342  .00000419  00000-0  27867-4 0  9995
2 43556  51.6418 170.1376 0008749 164.2019 195.9235 15.28143478 24975
AEROCUBE 12B            
1 43557U 18046D   18360.86310050  .00000389  00000-0  26817-4 0  9992
2 43557  51.6419 170.1555 0008735 164.4170 195.7080 15.28084450 24926
UITMSAT-1               
1 43589U 98067PD  18360.82144379  .00010033  00000-0  14078-3 0  9995
2 43589  51.6382 136.5993 0005832 218.0670 141.9911 15.57396835 21612
MAYA-1                  
1 43590U 98067PE  18360.81903140  .00010023  00000-0  14052-3 0  9996
2 43590  51.6384 136.5841 0005905 219.1295 140.9271 15.57422243 21547
BHUTAN-1                
1 43591U 98067PF  18360.75129320  .00009954  00000-0  13937-3 0  9992
2 43591  51.6387 136.8821 0005980 220.0592 139.9960 15.57464949 21537
SIRIUSSAT-1             
1 43595U 98067PG  18360.85719335  .00010055  00000-0  14344-3 0  9995
2 43595  51.6383 136.8342 0003884 170.3456 189.7611 15.56949745 20729
SIRIUSSAT-2             
1 43596U 98067PH  18360.80558704  .00009349  00000-0  13464-3 0  9998
2 43596  51.6391 137.2526 0004517 173.9203 186.1845 15.56790834 20713
TANUSHA-3               
1 43597U 98067PJ  18360.84845736  .00011668  00000-0  16307-3 0  9993
2 43597  51.6368 136.7621 0003944 187.1830 172.9106 15.57324881 20724
SURFSAT                 
1 43614U 18070B   18360.83998353  .00002211  00000-0  61769-4 0  9999
2 43614  93.0379 291.7941 0013774 253.9323 106.0413 15.36712626 15700
CP-7 (DAVE)             
1 43615U 18070C   18360.83999664  .00001937  00000-0  54179-4 0  9997
2 43615  93.0378 291.7950 0013879 254.0144 105.9580 15.36693369 15704
ELFIN-B                 
1 43616U 18070D   18360.89629943  .00003012  00000-0  83418-4 0  9998
2 43616  93.0347 291.7774 0014833 258.1358 101.8231 15.36939635 15716
ELFIN-A                 
1 43617U 18070E   18360.89412612  .00002925  00000-0  80957-4 0  9999
2 43617  93.0399 291.8565 0013911 253.5294 106.4431 15.36978112 15713
DEBRISSAT-1             
1 43621U 98067PM  18360.81836761  .00095377  00000-0  81236-3 0  9998
2 43621  51.6458 132.8851 0005688 220.2630 139.7915 15.68764696 15769
CUBEBEL-1 (BSUSAT-1)    
1 43666U 18083E   18361.11911171  .00000943  00000-0  50742-4 0  9994
2 43666  97.5339  21.6754 0016979  72.3690  12.9907 15.17207931  8964
DEBRISSAT-2             
1 43680U 98067PR  18360.97315459  .00012411  00000-0  17540-3 0  9991
2 43680  51.6421 136.0984 0003809 195.8327 164.2545 15.56952993 29482
CICERO 10               
1 43690U 18088A   18360.89885845  .00000902  00000-0  40673-4 0  9995
2 43690  85.0390  72.8909 0017422 121.0331 239.2623 15.19318655  6963
IRVINE01                
1 43693U 18088D   18360.92725042  .00001765  00000-0  78239-4 0  9991
2 43693  85.0365  72.7982 0021094 109.9041 250.4476 15.20614110  6958
PROXIMA I               
1 43694U 18088E   18360.91193038  .00000753  00000-0  31835-4 0  9992
2 43694  85.0333  72.7608 0021958 101.9354 258.4351 15.21068091  6960
PROXIMA II              
1 43696U 18088G   18360.91173015  .00000765  00000-0  32394-4 0  9991
2 43696  85.0334  72.7611 0021995 101.9006 258.4703 15.21074037  6959
FACSAT-1                
1 43721U 18096C   18361.16608379  .00001103  00000-0  45967-4 0  9990
2 43721  97.4819  66.1722 0017413 217.2859 142.7171 15.25772645  4271
CENTAURI-2              
1 43722U 18096D   18361.23020036  .00001452  00000-0  59420-4 0  9993
2 43722  97.4821  66.2402 0017535 218.0489 141.9511 15.25863321  4275
